COMMENT,ORIGINATOR,NORAD_CAT_ID,OBJECT_NAME,OBJECT_TYPE,CLASSIFICATION_TYPE,INTLDES,EPOCH,EPOCH_MICROSECONDS,MEAN_MOTION,ECCENTRICITY,INCLINATION,RA_OF_ASC_NODE,ARG_OF_PERICENTER,MEAN_ANOMALY,EPHEMERIS_TYPE,ELEMENT_SET_NO,REV_AT_EPOCH,BSTAR,MEAN_MOTION_DOT,MEAN_MOTION_DDOT,FILE,TLE_LINE0,TLE_LINE1,TLE_LINE2,OBJECT_ID,OBJECT_NUMBER,SEMIMAJOR_AXIS,PERIOD,APOGEE,PERIGEE,DECAYED
GENERATED VIA SPACETRACK.ORG API,18 SPCS,57309,STARLINK-30163,PAYLOAD,U,23096V,2024-01-31 13:15:46,780128,15.02551417,0.0000915,43.0027,76.6559,266.3114,93.7624,0,999,3116,0.00058999,0.00007778,0,4176118,0 STARLINK-30163,1 57309U 23096V   24031.55262477  .00007778  00000-0  58999-3 0  9994,2 57309  43.0027  76.6559 0000915 266.3114  93.7624 15.02551417 31161,2023-096V,57309,6937.169,95.837,559.669,558.399,1
GENERATED VIA SPACETRACK.ORG API,18 SPCS,57309,STARLINK-30163,PAYLOAD,U,23096V,2024-02-01 02:01:36,438528,15.02544031,0.0000655,43.0002,73.7651,235.6696,124.4084,0,999,3121,0.00026279,0.00003349,0,4176342,0 STARLINK-30163,1 57309U 23096V   24032.08444952  .00003349  00000-0  26279-3 0  9999,2 57309  43.0002  73.7651 0000655 235.6696 124.4084 15.02544031 31212,2023-096V,57309,6937.192,95.837,559.511,558.602,1
GENERATED VIA SPACETRACK.ORG API,18 SPCS,57309,STARLINK-30163,PAYLOAD,U,23096V,2024-02-01 11:35:58,656192,15.02540116,0.0001137,43.0031,71.5987,259.6122,100.4592,0,999,3127,0.00016215,0.00001988,0,4176662,0 STARLINK-30163,1 57309U 23096V   24032.48331778  .00001988  00000-0  16215-3 0  9990,2 57309  43.0031  71.5987 0001137 259.6122 100.4592 15.02540116 31272,2023-096V,57309,6937.204,95.838,559.858,558.280,1
GENERATED VIA SPACETRACK.ORG API,18 SPCS,57309,STARLINK-30163,PAYLOAD,U,23096V,2024-02-01 11:35:58,656192,15.02540116,0.0001137,43.0031,71.5987,259.6122,100.4592,0,999,3130,0.00016215,0.00001988,0,4176807,0 STARLINK-30163,1 57309U 23096V   24032.48331778  .00001988  00000-0  16215-3 0  9990,2 57309  43.0031  71.5987 0001137 259.6122 100.4592 15.02540116 31306,2023-096V,57309,6937.204,95.838,559.858,558.280,1
GENERATED VIA SPACETRACK.ORG API,18 SPCS,57309,STARLINK-30163,PAYLOAD,U,23096V,2024-02-02 03:33:14,655456,15.02563576,0.0001191,43.0034,67.9878,268.3114,91.7591,0,999,3137,0.00090846,0.00012098,0,4177185,0 STARLINK-30163,1 57309U 23096V   24033.14808629  .00012098  00000-0  90846-3 0  9994,2 57309  43.0034  67.9878 0001191 268.3114  91.7591 15.02563576 31378,2023-096V,57309,6937.132,95.836,559.823,558.170,1
GENERATED VIA SPACETRACK.ORG API,18 SPCS,57309,STARLINK-30163,PAYLOAD,U,23096V,2024-02-02 11:31:52,218336,15.02584145,0.0001156,43.0032,66.1803,258.77,101.3012,0,999,3142,0.001472,0.00019762,0,4177472,0 STARLINK-30163,1 57309U 23096V   24033.48046549  .00019762  00000-0  14720-2 0  9997,2 57309  43.0032  66.1803 0001156 258.7700 101.3012 15.02584145 31427,2023-096V,57309,6937.068,95.835,559.735,558.131,1
GENERATED VIA SPACETRACK.ORG API,18 SPCS,57309,STARLINK-30163,PAYLOAD,U,23096V,2024-02-02 11:31:52,218336,15.02584145,0.0001156,43.0032,66.1803,258.77,101.3012,0,999,3145,0.001472,0.00019762,0,4177630,0 STARLINK-30163,1 57309U 23096V   24033.48046549  .00019762  00000-0  14720-2 0  9997,2 57309  43.0032  66.1803 0001156 258.7700 101.3012 15.02584145 31450,2023-096V,57309,6937.068,95.835,559.735,558.131,1
GENERATED VIA SPACETRACK.ORG API,18 SPCS,57309,STARLINK-30163,PAYLOAD,U,23096V,2024-02-03 03:29:09,875616,15.02535335,0.0001092,43.0034,62.5664,235.8,124.2738,0,999,3152,-0.00017134,-0.00002517,0,4178086,0 STARLINK-30163,1 57309U 23096V   24034.14525319 -.00002517  00000-0 -17134-3 0  9993,2 57309  43.0034  62.5664 0001092 235.8000 124.2738 15.02535335 31529,2023-096V,57309,6937.219,95.838,559.841,558.326,1
GENERATED VIA SPACETRACK.ORG API,18 SPCS,57309,STARLINK-30163,PAYLOAD,U,23096V,2024-02-03 09:52:05,532096,15.02525879,0.0001064,43.004,61.1244,280.5062,79.566,0,999,3156,-0.00019727,-0.00002867,0,4178385,0 STARLINK-30163,1 57309U 23096V   24034.41117514 -.00002867  00000-0 -19727-3 0  9995,2 57309  43.0040  61.1244 0001064 280.5062  79.5660 15.02525879 31561,2023-096V,57309,6937.248,95.839,559.851,558.375,1
GENERATED VIA SPACETRACK.ORG API,18 SPCS,57309,STARLINK-30163,PAYLOAD,U,23096V,2024-02-03 09:52:05,532096,15.02525879,0.0001064,43.004,61.1244,280.5062,79.566,0,999,3159,-0.00019727,-0.00002867,0,4178485,0 STARLINK-30163,1 57309U 23096V   24034.41117514 -.00002867  00000-0 -19727-3 0  9995,2 57309  43.0040  61.1244 0001064 280.5062  79.5660 15.02525879 31594,2023-096V,57309,6937.248,95.839,559.851,558.375,1
GENERATED VIA SPACETRACK.ORG API,18 SPCS,57309,STARLINK-30163,PAYLOAD,U,23096V,2024-02-04 01:49:22,508544,15.02533862,0.0001013,43.0037,57.5111,286.0494,74.0237,0,999,3166,0.00027028,0.00003449,0,4178958,0 STARLINK-30163,1 57309U 23096V   24035.07595496  .00003449  00000-0  27028-3 0  9995,2 57309  43.0037  57.5111 0001013 286.0494  74.0237 15.02533862 31665,2023-096V,57309,6937.223,95.838,559.791,558.385,1
GENERATED VIA SPACETRACK.ORG API,18 SPCS,57309,STARLINK-30163,PAYLOAD,U,23096V,2024-02-04 11:23:44,575872,15.02563594,0.0000908,43.0036,55.3459,298.1059,61.9691,0,999,3172,0.0020697,0.00027886,0,4179219,0 STARLINK-30163,1 57309U 23096V   24035.47482148  .00027886  00000-0  20697-2 0  9993,2 57309  43.0036  55.3459 0000908 298.1059  61.9691 15.02563594 31729,2023-096V,57309,6937.132,95.836,559.626,558.367,1
GENERATED VIA SPACETRACK.ORG API,18 SPCS,57309,STARLINK-30163,PAYLOAD,U,23096V,2024-02-04 12:59:28,149792,15.02567905,0.0000903,43.0035,54.9846,298.0919,61.9832,0,999,3176,0.0021367,0.00028803,0,4179372,0 STARLINK-30163,1 57309U 23096V   24035.54129803  .00028803  00000-0  21367-2 0  9992,2 57309  43.0035  54.9846 0000903 298.0919  61.9832 15.02567905 31763,2023-096V,57309,6937.118,95.836,559.610,558.357,1
GENERATED VIA SPACETRACK.ORG API,18 SPCS,57309,STARLINK-30163,PAYLOAD,U,23096V,2024-02-05 03:21:01,284480,15.02556948,0.0000764,43.0038,51.7338,289.7121,70.3639,0,999,3182,0.0016297,0.00021892,0,4179786,0 STARLINK-30163,1 57309U 23096V   24036.13959820  .00021892  00000-0  16297-2 0  9995,2 57309  43.0038  51.7338 0000764 289.7121  70.3639 15.02556948 31825,2023-096V,57309,6937.152,95.837,559.547,558.487,1
GENERATED VIA SPACETRACK.ORG API,18 SPCS,57309,STARLINK-30163,PAYLOAD,U,23096V,2024-02-05 12:55:22,709856,15.02576494,0.0000677,43.0036,49.5662,279.5984,80.4782,0,999,3191,0.0022851,0.00030833,0,4180290,0 STARLINK-30163,1 57309U 23096V   24036.53845729  .00030833  00000-0  22851-2 0  9999,2 57309  43.0036  49.5662 0000677 279.5984  80.4782 15.02576494 31914,2023-096V,57309,6937.092,95.835,559.427,558.487,1
GENERATED VIA SPACETRACK.ORG API,18 SPCS,57309,STARLINK-30163,PAYLOAD,U,23096V,2024-02-06 01:41:12,808896,15.02537461,0.0000945,43.0035,46.6761,260.5521,99.5214,0,999,3196,0.0010863,0.00014501,0,4180658,0 STARLINK-30163,1 57309U 23096V   24037.07028714  .00014501  00000-0  10863-2 0  9990,2 57309  43.0035  46.6761 0000945 260.5521  99.5214 15.02537461 31963,2023-096V,57309,6937.212,95.838,559.733,558.421,1
GENERATED VIA SPACETRACK.ORG API,18 SPCS,57309,STARLINK-30163,PAYLOAD,U,23096V,2024-02-06 11:15:34,705152,15.02554357,0.0000789,43.0034,44.5088,230.908,129.1692,0,999,3205,0.0023241,0.00031347,0,4181108,0 STARLINK-30163,1 57309U 23096V   24037.46915168  .00031347  00000-0  23241-2 0  9992,2 57309  43.0034  44.5088 0000789 230.9080 129.1692 15.02554357 32052,2023-096V,57309,6937.160,95.837,559.572,558.478,1
GENERATED VIA SPACETRACK.ORG API,18 SPCS,57309,STARLINK-30163,PAYLOAD,U,23096V,2024-02-06 11:15:34,705152,15.02554357,0.0000789,43.0034,44.5088,230.908,129.1692,0,999,3202,0.0023241,0.00031347,0,4181292,0 STARLINK-30163,1 57309U 23096V   24037.46915168  .00031347  00000-0  23241-2 0  9992,2 57309  43.0034  44.5088 0000789 230.9080 129.1692 15.02554357 32029,2023-096V,57309,6937.160,95.837,559.572,558.478,1
GENERATED VIA SPACETRACK.ORG API,18 SPCS,57309,STARLINK-30163,PAYLOAD,U,23096V,2024-02-07 00:01:24,531168,15.02540627,0.0001188,43.0035,41.6191,207.6488,152.4292,0,999,3210,0.0020023,0.00026951,0,4181552,0 STARLINK-30163,1 57309U 23096V   24038.00097837  .00026951  00000-0  20023-2 0  9997,2 57309  43.0035  41.6191 0001188 207.6488 152.4292 15.02540627 32109,2023-096V,57309,6937.202,95.838,559.891,558.243,1
GENERATED VIA SPACETRACK.ORG API,18 SPCS,57309,STARLINK-30163,PAYLOAD,U,23096V,2024-02-07 09:35:46,506048,15.02549093,0.0001283,43.0038,39.452,222.3562,137.7182,0,999,3216,0.0016964,0.00022794,0,4181850,0 STARLINK-30163,1 57309U 23096V   24038.39984382  .00022794  00000-0  16964-2 0  9999,2 57309  43.0038  39.4520 0001283 222.3562 137.7182 15.02549093 32162,2023-096V,57309,6937.176,95.837,559.931,558.151,1
GENERATED VIA SPACETRACK.ORG API,18 SPCS,57309,STARLINK-30163,PAYLOAD,U,23096V,2024-02-07 09:35:46,506048,15.02549093,0.0001283,43.0038,39.452,222.3562,137.7182,0,999,3219,0.0016964,0.00022794,0,4182068,0 STARLINK-30163,1 57309U 23096V   24038.39984382  .00022794  00000-0  16964-2 0  9999,2 57309  43.0038  39.4520 0001283 222.3562 137.7182 15.02549093 32195,2023-096V,57309,6937.176,95.837,559.931,558.151,1
GENERATED VIA SPACETRACK.ORG API,18 SPCS,57309,STARLINK-30163,PAYLOAD,U,23096V,2024-02-08 01:33:03,599136,15.02545708,0.0002078,43.001,35.832,180.2256,179.8586,0,999,3226,0.0018168,0.00024431,0,4182461,0 STARLINK-30163,1 57309U 23096V   24039.06462499  .00024431  00000-0  18168-2 0  9992,2 57309  43.0010  35.8320 0002078 180.2256 179.8586 15.02545708 32260,2023-096V,57309,6937.187,95.837,560.493,557.610,1
GENERATED VIA SPACETRACK.ORG API,18 SPCS,57309,STARLINK-30163,PAYLOAD,U,23096V,2024-02-08 06:20:14,831520,15.02546797,0.0000753,43.0037,34.7554,244.5687,115.5078,0,999,3229,0.0015109,0.00020271,0,4182791,0 STARLINK-30163,1 57309U 23096V   24039.26406055  .00020271  00000-0  15109-2 0  9990,2 57309  43.0037  34.7554 0000753 244.5687 115.5078 15.02546797 32291,2023-096V,57309,6937.183,95.837,559.571,558.526,1
